[
  {
    "name": "(2019 WC5)",
    "diameter": 0.1905636132,
    "distance": 9759459.30563308,
    "semi_major_axis": 1.4269,
    "eccentricity": 0.6612,
    "inclination": 22.2,
    "longitude_ascending_node": 21.48,
    "argument_of_perihelion": 284.36,
    "mean_anomaly": 167.86,
    "orbital_period": 622.55,
    "relative_velocity": 25.94,
    "is_potentially_hazardous": false,
    "close_approach_date": "2023-08-27",
    "absolute_magnitude": 24.1
  },
  {
    "name": "(2019 YV1)",
    "diameter": 0.0534613571,
    "distance": 73895132.42233533,
    "semi_major_axis": 1.7482,
    "eccentricity": 0.3793,
    "inclination": 5.49,
    "longitude_ascending_node": 303.49,
    "argument_of_perihelion": 317.91,
    "mean_anomaly": 91.17,
    "orbital_period": 844.29,
    "relative_velocity": 18.97,
    "is_potentially_hazardous": false,
    "close_approach_date": "2023-10-05",
    "absolute_magnitude": 26.86
  },
  {
    "name": "(2020 JN2)",
    "diameter": 0.1032856481,
    "distance": 50288000.76630409,
    "semi_major_axis": 2.2082,
    "eccentricity": 0.3733,
    "inclination": 44.32,
    "longitude_ascending_node": 23.09,
    "argument_of_perihelion": 305.52,
    "mean_anomaly": 127.56,
    "orbital_period": 1198.55,
    "relative_velocity": 11.9,
    "is_potentially_hazardous": false,
    "close_approach_date": "2024-03-27",
    "absolute_magnitude": 25.43
  },
  {
    "name": "(2021 EB3)",
    "diameter": 0.0547066321,
    "distance": 8860641.89746871,
    "semi_major_axis": 1.3779,
    "eccentricity": 0.4268,
    "inclination": 19.28,
    "longitude_ascending_node": 293.05,
    "argument_of_perihelion": 324.53,
    "mean_anomaly": 340.17,
    "orbital_period": 590.78,
    "relative_velocity": 16.31,
    "is_potentially_hazardous": false,
    "close_approach_date": "2023-01-24",
    "absolute_magnitude": 26.81
  },
  {
    "name": "(2022 PF)",
    "diameter": 0.0252371308,
    "distance": 69782983.41917452,
    "semi_major_axis": 0.8979,
    "eccentricity": 0.4052,
    "inclination": 29.25,
    "longitude_ascending_node": 100.81,
    "argument_of_perihelion": 322.44,
    "mean_anomaly": 354.32,
    "orbital_period": 310.74,
    "relative_velocity": 25.36,
    "is_potentially_hazardous": false,
    "close_approach_date": "2024-06-24",
    "absolute_magnitude": 28.49
  },
  {
    "name": "(2022 WB3)",
    "diameter": 0.3499773825,
    "distance": 45226771.14615506,
    "semi_major_axis": 0.9452,
    "eccentricity": 0.1784,
    "inclination": 5.05,
    "longitude_ascending_node": 356.31,
    "argument_of_perihelion": 33.73,
    "mean_anomaly": 137.2,
    "orbital_period": 335.64,
    "relative_velocity": 29.07,
    "is_potentially_hazardous": false,
    "close_approach_date": "2024-02-24",
    "absolute_magnitude": 22.78
  },
  {
    "name": "(2022 WH3)",
    "diameter": 0.0820427065,
    "distance": 18948126.367503528,
    "semi_major_axis": 1.5399,
    "eccentricity": 0.5234,
    "inclination": 17.38,
    "longitude_ascending_node": 263.24,
    "argument_of_perihelion": 17.13,
    "mean_anomaly": 24.01,
    "orbital_period": 697.97,
    "relative_velocity": 6.73,
    "is_potentially_hazardous": false,
    "close_approach_date": "2024-11-15",
    "absolute_magnitude": 25.93
  },
  {
    "name": "(2022 WT10)",
    "diameter": 0.4898239078,
    "distance": 48746363.58463735,
    "semi_major_axis": 2.0522,
    "eccentricity": 0.6594,
    "inclination": 5.81,
    "longitude_ascending_node": 2.73,
    "argument_of_perihelion": 287.6,
    "mean_anomaly": 304.32,
    "orbital_period": 1073.78,
    "relative_velocity": 23.53,
    "is_potentially_hazardous": false,
    "close_approach_date": "2023-02-15",
    "absolute_magnitude": 22.05
  },
  {
    "name": "(2022 YL4)",
    "diameter": 0.0176213825,
    "distance": 1982840.150863586,
    "semi_major_axis": 1.348,
    "eccentricity": 0.5377,
    "inclination": 11.75,
    "longitude_ascending_node": 13.61,
    "argument_of_perihelion": 25.76,
    "mean_anomaly": 95.56,
    "orbital_period": 571.68,
    "relative_velocity": 18.23,
    "is_potentially_hazardous": false,
    "close_approach_date": "2023-08-15",
    "absolute_magnitude": 29.27
  },
  {
    "name": "(2023 AE)",
    "diameter": 0.0366471308,
    "distance": 1663888.949985209,
    "semi_major_axis": 2.3039,
    "eccentricity": 0.3779,
    "inclination": 9.33,
    "longitude_ascending_node": 176.34,
    "argument_of_perihelion": 4.59,
    "mean_anomaly": 79.74,
    "orbital_period": 1277.24,
    "relative_velocity": 9.57,
    "is_potentially_hazardous": false,
    "close_approach_date": "2024-11-04",
    "absolute_magnitude": 27.68
  },
  {
    "name": "(2024 HX1)",
    "diameter": 0.0287104486,
    "distance": 69681182.27807653,
    "semi_major_axis": 1.6118,
    "eccentricity": 0.2402,
    "inclination": 25.59,
    "longitude_ascending_node": 41.28,
    "argument_of_perihelion": 355.46,
    "mean_anomaly": 140.22,
    "orbital_period": 747.41,
    "relative_velocity": 30.2,
    "is_potentially_hazardous": false,
    "close_approach_date": "2023-04-18",
    "absolute_magnitude": 28.21
  },
  {
    "name": "189173 (2002 XY4)",
    "diameter": 0.9728367737,
    "distance": 42943230.34559863,
    "semi_major_axis": 1.4086,
    "eccentricity": 0.2448,
    "inclination": 34.44,
    "longitude_ascending_node": 265.04,
    "argument_of_perihelion": 91.3,
    "mean_anomaly": 39.3,
    "orbital_period": 610.63,
    "relative_velocity": 34.67,
    "is_potentially_hazardous": false,
    "close_approach_date": "2023-04-14",
    "absolute_magnitude": 20.56
  },
  {
    "name": "219071 (1997 US9)",
    "diameter": 2.2184006242,
    "distance": 65714916.58492426,
    "semi_major_axis": 1.4223,
    "eccentricity": 0.2865,
    "inclination": 37.82,
    "longitude_ascending_node": 36.18,
    "argument_of_perihelion": 46.02,
    "mean_anomaly": 301.42,
    "orbital_period": 619.56,
    "relative_velocity": 21.54,
    "is_potentially_hazardous": false,
    "close_approach_date": "2023-02-22",
    "absolute_magnitude": 18.77
  },
  {
    "name": "(2017 HJ)",
    "diameter": 0.0185370226,
    "distance": 50989788.02589734,
    "semi_major_axis": 0.9093,
    "eccentricity": 0.3906,
    "inclination": 29.06,
    "longitude_ascending_node": 163.14,
    "argument_of_perihelion": 183.66,
    "mean_anomaly": 232.81,
    "orbital_period": 316.71,
    "relative_velocity": 7.84,
    "is_potentially_hazardous": false,
    "close_approach_date": "2023-12-17",
    "absolute_magnitude": 29.16
  },
  {
    "name": "(2021 AT2)",
    "diameter": 0.0208948847,
    "distance": 64867216.33510507,
    "semi_major_axis": 2.3872,
    "eccentricity": 0.5951,
    "inclination": 37.52,
    "longitude_ascending_node": 302.35,
    "argument_of_perihelion": 14.94,
    "mean_anomaly": 105.47,
    "orbital_period": 1347.19,
    "relative_velocity": 6.9,
    "is_potentially_hazardous": false,
    "close_approach_date": "2024-09-19",
    "absolute_magnitude": 28.9
  },
  {
    "name": "(2021 NF)",
    "diameter": 0.0666868155,
    "distance": 6837263.072521683,
    "semi_major_axis": 2.2216,
    "eccentricity": 0.6255,
    "inclination": 30.61,
    "longitude_ascending_node": 94.53,
    "argument_of_perihelion": 67.79,
    "mean_anomaly": 238.88,
    "orbital_period": 1209.49,
    "relative_velocity": 7.13,
    "is_potentially_hazardous": false,
    "close_approach_date": "2023-07-21",
    "absolute_magnitude": 26.38
  },
  {
    "name": "(2021 RG6)",
    "diameter": 0.0097732718,
    "distance": 27608609.381668568,
    "semi_major_axis": 1.1457,
    "eccentricity": 0.6631,
    "inclination": 8.27,
    "longitude_ascending_node": 91.14,
    "argument_of_perihelion": 162.44,
    "mean_anomaly": 215.41,
    "orbital_period": 447.93,
    "relative_velocity": 32.76,
    "is_potentially_hazardous": false,
    "close_approach_date": "2024-10-16",
    "absolute_magnitude": 30.55
  },
  {
    "name": "(2021 SV1)",
    "diameter": 0.0300635304,
    "distance": 40644068.0866632,
    "semi_major_axis": 2.4037,
    "eccentricity": 0.4462,
    "inclination": 14.62,
    "longitude_ascending_node": 236.38,
    "argument_of_perihelion": 245.84,
    "mean_anomaly": 251.24,
    "orbital_period": 1361.18,
    "relative_velocity": 29.37,
    "is_potentially_hazardous": false,
    "close_approach_date": "2024-08-02",
    "absolute_magnitude": 28.11
  },
  {
    "name": "(2022 LG5)",
    "diameter": 0.3532156834,
    "distance": 16806632.379740342,
    "semi_major_axis": 2.2184,
    "eccentricity": 0.6235,
    "inclination": 30.94,
    "longitude_ascending_node": 125.15,
    "argument_of_perihelion": 59.82,
    "mean_anomaly": 145.0,
    "orbital_period": 1206.8,
    "relative_velocity": 33.14,
    "is_potentially_hazardous": false,
    "close_approach_date": "2024-09-02",
    "absolute_magnitude": 22.76
  },
  {
    "name": "(2022 MF2)",
    "diameter": 0.0353215683,
    "distance": 45213306.11115253,
    "semi_major_axis": 1.0339,
    "eccentricity": 0.4145,
    "inclination": 3.53,
    "longitude_ascending_node": 202.04,
    "argument_of_perihelion": 218.65,
    "mean_anomaly": 169.53,
    "orbital_period": 384.0,
    "relative_velocity": 14.73,
    "is_potentially_hazardous": false,
    "close_approach_date": "2023-11-01",
    "absolute_magnitude": 27.76
  },
  {
    "name": "(2022 WV7)",
    "diameter": 0.1506745763,
    "distance": 21835290.20525215,
    "semi_major_axis": 1.2025,
    "eccentricity": 0.441,
    "inclination": 1.01,
    "longitude_ascending_node": 71.64,
    "argument_of_perihelion": 192.62,
    "mean_anomaly": 57.66,
    "orbital_period": 481.62,
    "relative_velocity": 24.84,
    "is_potentially_hazardous": false,
    "close_approach_date": "2024-05-10",
    "absolute_magnitude": 24.61
  }
]